{"type": "FeatureCollection", "features": [ {"type": "Feature", "properties": {"norad_id": 41825, "name": "FENGYUN 1C DEB", "group": "fengyun-1c-debris", "lat": 14.77990690855671, "lon": -132.30767668887347, "alt_km": 806.1541291651229, "timestamp": "2025-12-02T07:10:09.405739+00:00", "meta": {"OBJECT_NAME": "FENGYUN 1C DEB", "OBJECT_ID": "1999-025EYC", "EPOCH": "2025-11-26T03:46:33.202272", "MEAN_MOTION": 14.24905851, "ECCENTRICITY": 0.00545151, "INCLINATION": 98.7423, "RA_OF_ASC_NODE": 39.2502, "ARG_OF_PERICENTER": 268.2468, "MEAN_ANOMALY": 91.2466, "EPHEMERIS_TYPE": 0, "CLASSIFICATION_TYPE": "U", "NORAD_CAT_ID": 41825, "ELEMENT_SET_NO": 999, "REV_AT_EPOCH": 47112, "BSTAR": 0.0019288716, "MEAN_MOTION_DOT": 4.534e-05, "MEAN_MOTION_DDOT": 0}, "tle": {"line1": "1 41825U 99025EYC 25330.15732873  .00004534  00000+0  19289-2 0  9990", "line2": "2 41825  98.7423  39.2502 0054515 268.2468  91.2466 14.24905851471124"}}, "geometry": {"type": "Point", "coordinates": [-132.30767668887347, 14.77990690855671]}}, {"type": "Feature", "properties": {"norad_id": 41826, "name": "FENGYUN 1C DEB", "group": "fengyun-1c-debris", "lat": -6.899824316640321, "lon": -138.90186423578413, "alt_km": 801.3320790462185, "timestamp": "2025-12-02T07:10:09.405749+00:00", "meta": {"OBJECT_NAME": "FENGYUN 1C DEB", "OBJECT_ID": "1999-025EYD", "EPOCH": "2025-11-26T15:20:38.448096", "MEAN_MOTION": 14.23588409, "ECCENTRICITY": 0.00545194, "INCLINATION": 98.735, "RA_OF_ASC_NODE": 36.5456, "ARG_OF_PERICENTER": 270.1742, "MEAN_ANOMALY": 89.3189, "EPHEMERIS_TYPE": 0, "CLASSIFICATION_TYPE": "U", "NORAD_CAT_ID": 41826, "ELEMENT_SET_NO": 999, "REV_AT_EPOCH": 47131, "BSTAR": 0.0016457098, "MEAN_MOTION_DOT": 3.763e-05, "MEAN_MOTION_DDOT": 0}, "tle": {"line1": "1 41826U 99025EYD 25330.63933389  .00003763  00000+0  16457-2 0  9996", "line2": "2 41826  98.7350  36.5456 0054519 270.1742  89.3189 14.23588409471319"}}, "geometry": {"type": "Point", "coordinates": [-138.90186423578413, -6.899824316640321]}}, {"type": "Feature", "properties": {"norad_id": 41827, "name": "FENGYUN 1C DEB", "group": "fengyun-1c-debris", "lat": 25.761443655521358, "lon": 41.281389209257384, "alt_km": 839.9841908676508, "timestamp": "2025-12-02T07:10:09.405759+00:00", "meta": {"OBJECT_NAME": "FENGYUN 1C DEB", "OBJECT_ID": "1999-025EYE", "EPOCH": "2025-12-01T04:05:10.248864", "MEAN_MOTION": 14.25127493, "ECCENTRICITY": 0.0057457, "INCLINATION": 98.7435, "RA_OF_ASC_NODE": 44.4164, "ARG_OF_PERICENTER": 246.5264, "MEAN_ANOMALY": 112.9869, "EPHEMERIS_TYPE": 0, "CLASSIFICATION_TYPE": "U", "NORAD_CAT_ID": 41827, "ELEMENT_SET_NO": 999, "REV_AT_EPOCH": 47166, "BSTAR": 0.0019499, "MEAN_MOTION_DOT": 4.612e-05, "MEAN_MOTION_DDOT": 0}, "tle": {"line1": "1 41827U 99025EYE 25335.17025751  .00004612  00000+0  19499-2 0  9999", "line2": "2 41827  98.7435  44.4164 0057457 246.5264 112.9869 14.25127493471668"}}, "geometry": {"type": "Point", "coordinates": [41.281389209257384, 25.761443655521358]}}, {"type": "Feature", "properties": {"norad_id": 41828, "name": "FENGYUN 1C DEB", "group": "fengyun-1c-debris", "lat": 17.81829582661952, "lon": 100.81328543922201, "alt_km": 751.1249998450448, "timestamp": "2025-12-02T07:10:09.405769+00:00", "meta": {"OBJECT_NAME": "FENGYUN 1C DEB", "OBJECT_ID": "1999-025EYF", "EPOCH": "2025-12-01T07:54:56.930976", "MEAN_MOTION": 14.50973066, "ECCENTRICITY": 0.0040398, "INCLINATION": 98.9217, "RA_OF_ASC_NODE": 102.6805, "ARG_OF_PERICENTER": 208.3082, "MEAN_ANOMALY": 151.5915, "EPHEMERIS_TYPE": 0, "CLASSIFICATION_TYPE": "U", "NORAD_CAT_ID": 41828, "ELEMENT_SET_NO": 999, "REV_AT_EPOCH": 47298, "BSTAR": 0.0066175147, "MEAN_MOTION_DOT": 0.00026485, "MEAN_MOTION_DDOT": 0}, "tle": {"line1": "1 41828U 99025EYF 25335.32982559  .00026485  00000+0  66175-2 0  9990", "line2": "2 41828  98.9217 102.6805 0040398 208.3082 151.5915 14.50973066472988"}}, "geometry": {"type": "Point", "coordinates": [100.81328543922201, 17.81829582661952]}}, {"type": "Feature", "properties": {"norad_id": 41829, "name": "FENGYUN 1C DEB", "group": "fengyun-1c-debris", "lat": 2.407354423051244, "lon": -134.08016758470302, "alt_km": 798.2202419311916, "timestamp": "2025-12-02T07:10:09.405779+00:00", "meta": {"OBJECT_NAME": "FENGYUN 1C DEB", "OBJECT_ID": "1999-025EYG", "EPOCH": "2025-12-01T03:22:14.737440", "MEAN_MOTION": 14.24988349, "ECCENTRICITY": 0.00557658, "INCLINATION": 98.7463, "RA_OF_ASC_NODE": 44.395, "ARG_OF_PERICENTER": 252.3617, "MEAN_ANOMALY": 107.1468, "EPHEMERIS_TYPE": 0, "CLASSIFICATION_TYPE": "U", "NORAD_CAT_ID": 41829, "ELEMENT_SET_NO": 999, "REV_AT_EPOCH": 47142, "BSTAR": 0.0016709714, "MEAN_MOTION_DOT": 3.931e-05, "MEAN_MOTION_DDOT": 0}, "tle": {"line1": "1 41829U 99025EYG 25335.14044835  .00003931  00000+0  16710-2 0  9998", "line2": "2 41829  98.7463  44.3950 0055765 252.3617 107.1468 14.24988349471429"}}, "geometry": {"type": "Point", "coordinates": [-134.08016758470302, 2.407354423051244]}}, {"type": "Feature", "properties": {"norad_id": 41830, "name": "FENGYUN 1C DEB", "group": "fengyun-1c-debris", "lat": -50.71073268362588, "lon": 59.14047220753896, "alt_km": 792.7040237918727, "timestamp": "2025-12-02T07:10:09.405789+00:00", "meta": {"OBJECT_NAME": "FENGYUN 1C DEB", "OBJECT_ID": "1999-025EYH", "EPOCH": "2025-12-01T04:28:20.163072", "MEAN_MOTION": 14.26292555, "ECCENTRICITY": 0.0053874, "INCLINATION": 98.7545, "RA_OF_ASC_NODE": 47.173, "ARG_OF_PERICENTER": 249.6962, "MEAN_ANOMALY": 109.8423, "EPHEMERIS_TYPE": 0, "CLASSIFICATION_TYPE": "U", "NORAD_CAT_ID": 41830, "ELEMENT_SET_NO": 999, "REV_AT_EPOCH": 47109, "BSTAR": 0.002086, "MEAN_MOTION_DOT": 5.041e-05, "MEAN_MOTION_DDOT": 0}, "tle": {"line1": "1 41830U 99025EYH 25335.18634448  .00005041  00000+0  20860-2 0  9994", "line2": "2 41830  98.7545  47.1730 0053874 249.6962 109.8423 14.26292555471092"}}, "geometry": {"type": "Point", "coordinates": [59.14047220753896, -50.71073268362588]}}, {"type": "Feature", "properties": {"norad_id": 41831, "name": "FENGYUN 1C DEB", "group": "fengyun-1c-debris", "lat": -23.841515848326758, "lon": -140.68300711705677, "alt_km": 788.5955003300969, "timestamp": "2025-12-02T07:10:09.405799+00:00", "meta": {"OBJECT_NAME": "FENGYUN 1C DEB", "OBJECT_ID": "1999-025EYJ", "EPOCH": "2025-12-01T03:14:09.554784", "MEAN_MOTION": 14.24427552, "ECCENTRICITY": 0.00555003, "INCLINATION": 98.7357, "RA_OF_ASC_NODE": 42.056, "ARG_OF_PERICENTER": 254.5882, "MEAN_ANOMALY": 104.9162, "EPHEMERIS_TYPE": 0, "CLASSIFICATION_TYPE": "U", "NORAD_CAT_ID": 41831, "ELEMENT_SET_NO": 999, "REV_AT_EPOCH": 47094, "BSTAR": 0.001736176, "MEAN_MOTION_DOT": 4.041e-05, "MEAN_MOTION_DDOT": 0}, "tle": {"line1": "1 41831U 99025EYJ 25335.13483281  .00004041  00000+0  17362-2 0  9999", "line2": "2 41831  98.7357  42.0560 0055500 254.5882 104.9162 14.24427552470947"}}, "geometry": {"type": "Point", "coordinates": [-140.68300711705677, -23.841515848326758]}}, {"type": "Feature", "properties": {"norad_id": 41832, "name": "FENGYUN 1C DEB", "group": "fengyun-1c-debris", "lat": -81.0880229370371, "lon": 118.90339419476815, "alt_km": 781.0245253513176, "timestamp": "2025-12-02T07:10:09.405809+00:00", "meta": {"OBJECT_NAME": "FENGYUN 1C DEB", "OBJECT_ID": "1999-025EYK", "EPOCH": "2025-12-01T02:54:54.697824", "MEAN_MOTION": 14.24097954, "ECCENTRICITY": 0.00547129, "INCLINATION": 98.7307, "RA_OF_ASC_NODE": 39.223, "ARG_OF_PERICENTER": 259.0032, "MEAN_ANOMALY": 100.4989, "EPHEMERIS_TYPE": 0, "CLASSIFICATION_TYPE": "U", "NORAD_CAT_ID": 41832, "ELEMENT_SET_NO": 999, "REV_AT_EPOCH": 47185, "BSTAR": 0.001739184, "MEAN_MOTION_DOT": 4.02e-05, "MEAN_MOTION_DDOT": 0}, "tle": {"line1": "1 41832U 99025EYK 25335.12146641  .00004020  00000+0  17392-2 0  9995", "line2": "2 41832  98.7307  39.2230 0054712 259.0032 100.4989 14.24097954471854"}}, "geometry": {"type": "Point", "coordinates": [118.90339419476815, -81.0880229370371]}}, {"type": "Feature", "properties": {"norad_id": 41833, "name": "FENGYUN 1C DEB", "group": "fengyun-1c-debris", "lat": 59.43815179576128, "lon": 30.7666124429298, "alt_km": 837.996752500444, "timestamp": "2025-12-02T07:10:09.405819+00:00", "meta": {"OBJECT_NAME": "FENGYUN 1C DEB", "OBJECT_ID": "1999-025EYL", "EPOCH": "2025-12-01T10:40:16.856256", "MEAN_MOTION": 14.25661279, "ECCENTRICITY": 0.00535293, "INCLINATION": 98.7504, "RA_OF_ASC_NODE": 45.0337, "ARG_OF_PERICENTER": 255.6089, "MEAN_ANOMALY": 103.9145, "EPHEMERIS_TYPE": 0, "CLASSIFICATION_TYPE": "U", "NORAD_CAT_ID": 41833, "ELEMENT_SET_NO": 999, "REV_AT_EPOCH": 47203, "BSTAR": 0.0020500146, "MEAN_MOTION_DOT": 4.891e-05, "MEAN_MOTION_DDOT": 0}, "tle": {"line1": "1 41833U 99025EYL 25335.44463954  .00004891  00000+0  20500-2 0  9991", "line2": "2 41833  98.7504  45.0337 0053529 255.6089 103.9145 14.25661279472037"}}, "geometry": {"type": "Point", "coordinates": [30.7666124429298, 59.43815179576128]}}, {"type": "Feature", "properties": {"norad_id": 43213, "name": "FENGYUN 1C DEB", "group": "fengyun-1c-debris", "lat": -22.079074260282738, "lon": 44.34537990658316, "alt_km": 811.3896677394296, "timestamp": "2025-12-02T07:10:09.405829+00:00", "meta": {"OBJECT_NAME": "FENGYUN 1C DEB", "OBJECT_ID": "1999-025EYM", "EPOCH": "2025-12-01T02:36:02.542464", "MEAN_MOTION": 14.23725713, "ECCENTRICITY": 0.00541898, "INCLINATION": 98.7353, "RA_OF_ASC_NODE": 39.5877, "ARG_OF_PERICENTER": 260.7385, "MEAN_ANOMALY": 98.7663, "EPHEMERIS_TYPE": 0, "CLASSIFICATION_TYPE": "U", "NORAD_CAT_ID": 43213, "ELEMENT_SET_NO": 999, "REV_AT_EPOCH": 40207, "BSTAR": 0.0016623846, "MEAN_MOTION_DOT": 3.811e-05, "MEAN_MOTION_DDOT": 0}, "tle": {"line1": "1 43213U 99025EYM 25335.10836276  .00003811  00000+0  16624-2 0  9992", "line2": "2 43213  98.7353  39.5877 0054189 260.7385  98.7663 14.23725713402074"}}, "geometry": {"type": "Point", "coordinates": [44.34537990658316, -22.079074260282738]}}]}